{
  "type": "FeatureCollection",
  "features": [
    {
      "type": "Feature",
      "properties": {
        "norad_id": 31215,
        "name": "FENGYUN 1C DEB",
        "group": "fengyun-1c-debris",
        "lat": -44.469827505218575,
        "lon": -155.40571114420555,
        "alt_km": 735.6529583044594,
        "timestamp": "2025-12-17T07:00:47.185629+00:00",
        "meta_object_name": "FENGYUN 1C DEB",
        "meta_object_id": "1999-025BKV",
        "meta_epoch": "2025-12-15T08:19:35.240160",
        "meta_mean_motion": 14.33803054,
        "meta_eccentricity": 0.00700435,
        "meta_inclination": 99.0713,
        "meta_ra_of_asc_node": 193.5324,
        "meta_arg_of_pericenter": 316.6718,
        "meta_mean_anomaly": 42.897,
        "meta_ephemeris_type": 0,
        "meta_classification_type": "U",
        "meta_norad_cat_id": 31215,
        "meta_element_set_no": 999,
        "meta_rev_at_epoch": 96563,
        "meta_bstar": 0.00074953738,
        "meta_mean_motion_dot": 2.094e-05,
        "meta_mean_motion_ddot": 0,
        "tle_line1": "1 31215U 99025BKV 25349.34693565  .00002094  00000+0  74954-3 0  9997",
        "tle_line2": "2 31215  99.0713 193.5324 0070043 316.6718  42.8970 14.33803054965636"
      },
      "geometry": {
        "type": "Point",
        "coordinates": [
          -155.40571114420555,
          -44.469827505218575
        ]
      }
    },
    {
      "type": "Feature",
      "properties": {
        "norad_id": 31217,
        "name": "FENGYUN 1C DEB",
        "group": "fengyun-1c-debris",
        "lat": -23.46288326515324,
        "lon": 175.27008501518597,
        "alt_km": 798.9576760900218,
        "timestamp": "2025-12-17T07:00:47.185639+00:00",
        "meta_object_name": "FENGYUN 1C DEB",
        "meta_object_id": "1999-025BKX",
        "meta_epoch": "2025-12-16T18:12:16.593696",
        "meta_mean_motion": 14.17547533,
        "meta_eccentricity": 0.00998548,
        "meta_inclination": 98.6404,
        "meta_ra_of_asc_node": 358.5352,
        "meta_arg_of_pericenter": 148.5309,
        "meta_mean_anomaly": 212.1892,
        "meta_ephemeris_type": 0,
        "meta_classification_type": "U",
        "meta_norad_cat_id": 31217,
        "meta_element_set_no": 999,
        "meta_rev_at_epoch": 96405,
        "meta_bstar": 0.00051233074,
        "meta_mean_motion_dot": 1.05e-05,
        "meta_mean_motion_ddot": 0,
        "tle_line1": "1 31217U 99025BKX 25350.75852539  .00001050  00000+0  51233-3 0  9990",
        "tle_line2": "2 31217  98.6404 358.5352 0099854 148.5309 212.1892 14.17547533964052"
      },
      "geometry": {
        "type": "Point",
        "coordinates": [
          175.27008501518597,
          -23.46288326515324
        ]
      }
    },
    {
      "type": "Feature",
      "properties": {
        "norad_id": 31218,
        "name": "FENGYUN 1C DEB",
        "group": "fengyun-1c-debris",
        "lat": -76.19026349426944,
        "lon": 141.16037317023776,
        "alt_km": 660.9096422232205,
        "timestamp": "2025-12-17T07:00:47.185650+00:00",
        "meta_object_name": "FENGYUN 1C DEB",
        "meta_object_id": "1999-025BKY",
        "meta_epoch": "2025-12-15T06:27:09.232704",
        "meta_mean_motion": 14.72620878,
        "meta_eccentricity": 0.00115959,
        "meta_inclination": 98.8419,
        "meta_ra_of_asc_node": 99.6682,
        "meta_arg_of_pericenter": 24.9683,
        "meta_mean_anomaly": 335.2081,
        "meta_ephemeris_type": 0,
        "meta_classification_type": "U",
        "meta_norad_cat_id": 31218,
        "meta_element_set_no": 999,
        "meta_rev_at_epoch": 97120,
        "meta_bstar": 0.0027136999,
        "meta_mean_motion_dot": 0.00017278,
        "meta_mean_motion_ddot": 0,
        "tle_line1": "1 31218U 99025BKY 25349.26885686  .00017278  00000+0  27137-2 0  9998",
        "tle_line2": "2 31218  98.8419  99.6682 0011595  24.9683 335.2081 14.72620878971205"
      },
      "geometry": {
        "type": "Point",
        "coordinates": [
          141.16037317023776,
          -76.19026349426944
        ]
      }
    },
    {
      "type": "Feature",
      "properties": {
        "norad_id": 31219,
        "name": "FENGYUN 1C DEB",
        "group": "fengyun-1c-debris",
        "lat": -76.5448559730815,
        "lon": 138.19386060606112,
        "alt_km": 858.9067902788056,
        "timestamp": "2025-12-17T07:00:47.185660+00:00",
        "meta_object_name": "FENGYUN 1C DEB",
        "meta_object_id": "1999-025BKZ",
        "meta_epoch": "2025-12-14T18:20:38.656320",
        "meta_mean_motion": 14.13798373,
        "meta_eccentricity": 0.00791314,
        "meta_inclination": 99.2837,
        "meta_ra_of_asc_node": 358.7011,
        "meta_arg_of_pericenter": 171.5473,
        "meta_mean_anomaly": 188.7052,
        "meta_ephemeris_type": 0,
        "meta_classification_type": "U",
        "meta_norad_cat_id": 31219,
        "meta_element_set_no": 999,
        "meta_rev_at_epoch": 95598,
        "meta_bstar": 0.001362468,
        "meta_mean_motion_dot": 2.61e-05,
        "meta_mean_motion_ddot": 0,
        "tle_line1": "1 31219U 99025BKZ 25348.76433630  .00002610  00000+0  13625-2 0  9992",
        "tle_line2": "2 31219  99.2837 358.7011 0079131 171.5473 188.7052 14.13798373955983"
      },
      "geometry": {
        "type": "Point",
        "coordinates": [
          138.19386060606112,
          -76.5448559730815
        ]
      }
    },
    {
      "type": "Feature",
      "properties": {
        "norad_id": 31222,
        "name": "FENGYUN 1C DEB",
        "group": "fengyun-1c-debris",
        "lat": 20.333570484863117,
        "lon": 58.5141723950775,
        "alt_km": 474.6803838593305,
        "timestamp": "2025-12-17T07:00:47.185670+00:00",
        "meta_object_name": "FENGYUN 1C DEB",
        "meta_object_id": "1999-025BLC",
        "meta_epoch": "2025-12-16T03:40:08.788800",
        "meta_mean_motion": 14.97876889,
        "meta_eccentricity": 0.01703863,
        "meta_inclination": 98.6125,
        "meta_ra_of_asc_node": 60.4775,
        "meta_arg_of_pericenter": 58.4607,
        "meta_mean_anomaly": 303.3127,
        "meta_ephemeris_type": 0,
        "meta_classification_type": "U",
        "meta_norad_cat_id": 31222,
        "meta_element_set_no": 999,
        "meta_rev_at_epoch": 34,
        "meta_bstar": 0.000449132,
        "meta_mean_motion_dot": 7.06e-05,
        "meta_mean_motion_ddot": 0,
        "tle_line1": "1 31222U 99025BLC 25350.15287950  .00007060  00000+0  44913-3 0  9993",
        "tle_line2": "2 31222  98.6125  60.4775 0170386  58.4607 303.3127 14.97876889   340"
      },
      "geometry": {
        "type": "Point",
        "coordinates": [
          58.5141723950775,
          20.333570484863117
        ]
      }
    },
    {
      "type": "Feature",
      "properties": {
        "norad_id": 31223,
        "name": "FENGYUN 1C DEB",
        "group": "fengyun-1c-debris",
        "lat": -45.02493226869342,
        "lon": -113.4942759436635,
        "alt_km": 928.2827815639985,
        "timestamp": "2025-12-17T07:00:47.185681+00:00",
        "meta_object_name": "FENGYUN 1C DEB",
        "meta_object_id": "1999-025BLD",
        "meta_epoch": "2025-12-16T15:32:13.075584",
        "meta_mean_motion": 13.77268299,
        "meta_eccentricity": 0.02433291,
        "meta_inclination": 99.0063,
        "meta_ra_of_asc_node": 236.7608,
        "meta_arg_of_pericenter": 30.5184,
        "meta_mean_anomaly": 330.9875,
        "meta_ephemeris_type": 0,
        "meta_classification_type": "U",
        "meta_norad_cat_id": 31223,
        "meta_element_set_no": 999,
        "meta_rev_at_epoch": 92782,
        "meta_bstar": 0.0022043987,
        "meta_mean_motion_dot": 2.68e-05,
        "meta_mean_motion_ddot": 0,
        "tle_line1": "1 31223U 99025BLD 25350.64737356  .00002680  00000+0  22044-2 0  9991",
        "tle_line2": "2 31223  99.0063 236.7608 0243329  30.5184 330.9875 13.77268299927823"
      },
      "geometry": {
        "type": "Point",
        "coordinates": [
          -113.4942759436635,
          -45.02493226869342
        ]
      }
    },
    {
      "type": "Feature",
      "properties": {
        "norad_id": 31224,
        "name": "FENGYUN 1C DEB",
        "group": "fengyun-1c-debris",
        "lat": -65.35604906538352,
        "lon": 1.7237856590403617,
        "alt_km": 893.6163431789382,
        "timestamp": "2025-12-17T07:00:47.185691+00:00",
        "meta_object_name": "FENGYUN 1C DEB",
        "meta_object_id": "1999-025BLE",
        "meta_epoch": "2025-12-14T17:59:50.881344",
        "meta_mean_motion": 14.28898926,
        "meta_eccentricity": 0.01581604,
        "meta_inclination": 98.3699,
        "meta_ra_of_asc_node": 340.5641,
        "meta_arg_of_pericenter": 156.9527,
        "meta_mean_anomaly": 24.9873,
        "meta_ephemeris_type": 0,
        "meta_classification_type": "U",
        "meta_norad_cat_id": 31224,
        "meta_element_set_no": 999,
        "meta_rev_at_epoch": 69279,
        "meta_bstar": 0.00033508594,
        "meta_mean_motion_dot": 9.25e-06,
        "meta_mean_motion_ddot": 0,
        "tle_line1": "1 31224U 99025BLE 25348.74989446  .00000925  00000+0  33509-3 0  9998",
        "tle_line2": "2 31224  98.3699 340.5641 0158160 156.9527  24.9873 14.28898926692790"
      },
      "geometry": {
        "type": "Point",
        "coordinates": [
          1.7237856590403617,
          -65.35604906538352
        ]
      }
    }
  ]
}